[{"OBJECT_NAME":"IRIDIUM 180","OBJECT_ID":"2019-002A","EPOCH":"2026-03-09T22:12:10.971936","MEAN_MOTION":14.34217842,"ECCENTRICITY":0.00022889,"INCLINATION":86.3973,"RA_OF_ASC_NODE":35.0663,"ARG_OF_PERICENTER":84.9653,"MEAN_ANOMALY":275.1804,"EPHEMERIS_TYPE":0,"CLASSIFICATION_TYPE":"U","NORAD_CAT_ID":43922,"ELEMENT_SET_NO":999,"REV_AT_EPOCH":37476,"BSTAR":6.536861e-6,"MEAN_MOTION_DOT":3.8e-7,"MEAN_MOTION_DDOT":0},{"OBJECT_NAME":"FENGYUN 1C DEB","OBJECT_ID":"1999-025ADS","EPOCH":"2026-03-09T22:00:14.805792","MEAN_MOTION":14.22445037,"ECCENTRICITY":0.00782522,"INCLINATION":99.0508,"RA_OF_ASC_NODE":154.6643,"ARG_OF_PERICENTER":134.3617,"MEAN_ANOMALY":226.4006,"EPHEMERIS_TYPE":0,"CLASSIFICATION_TYPE":"U","NORAD_CAT_ID":30403,"ELEMENT_SET_NO":999,"REV_AT_EPOCH":98045,"BSTAR":0.00221661,"MEAN_MOTION_DOT":5.054e-5,"MEAN_MOTION_DDOT":0}]
